1 42858U 17042AK  20008.78527634  .00005115  00000-0  12356-3 0  9995
2 42858  96.9132 245.8756 0008284 184.7337 175.3835 15.41552802139391
1 42858U 17042AK  20009.17475060  .00005489  00000-0  13243-3 0  9994
2 42858  96.9131 246.2446 0008330 183.3234 176.7960 15.41557584139457
1 42858U 17042AK  20009.75895963  .00006078  00000-0  14640-3 0  9993
2 42858  96.9130 246.7981 0008397 181.1057 179.0174 15.41565267139547
1 42858U 17042AK  20010.66772326  .00006663  00000-0  16024-3 0  9990
2 42858  96.9127 247.6591 0008500 177.7294 182.3994 15.41577853139686
1 42858U 17042AK  20011.44665779  .00006158  00000-0  14818-3 0  9998
2 42858  96.9124 248.3970 0008638 174.8522 185.2816 15.41587199139809
1 42858U 17042AK  20011.77121243  .00006150  00000-0  14797-3 0  9995
2 42858  96.9123 248.7045 0008658 173.5972 186.5388 15.41591570139853
1 42858U 17042AK  20012.74487153  .00005341  00000-0  12871-3 0  9990
2 42858  96.9120 249.6269 0008766 170.0275 190.1149 15.41602108140001
1 42858U 17042AK  20013.78343470  .00004951  00000-0  11940-3 0  9990
2 42858  96.9118 250.6108 0008903 166.2741 193.8751 15.41612227140169
1 42858U 17042AK  20014.88690176  .00005049  00000-0  12167-3 0  9991
2 42858  96.9118 251.6561 0009032 162.4937 197.6624 15.41622344140333
1 42858U 17042AK  20015.27635868  .00004147  00000-0  10028-3 0  9994
2 42858  96.9118 252.0251 0009084 161.1492 199.0095 15.41624059140392
1 42858U 17042AK  20015.92545251  .00004069  00000-0  98391-4 0  9995
2 42858  96.9119 252.6399 0009154 158.8954 201.2674 15.41629246140499
1 42858U 17042AK  20016.31490743  .00004261  00000-0  10293-3 0  9992
2 42858  96.9119 253.0089 0009208 157.5335 202.6318 15.41633033140555
1 42858U 17042AK  20017.15872378  .00004341  00000-0  10481-3 0  9991
2 42858  96.9120 253.8082 0009302 154.6715 205.4991 15.41640625140680
1 42858U 17042AK  20017.22363259  .00004147  00000-0  10020-3 0  9995
2 42858  96.9120 253.8698 0009313 154.4621 205.7089 15.41640698140691
1 42858U 17042AK  20017.61308475  .00004127  00000-0  99715-4 0  9994
2 42858  96.9120 254.2386 0009332 153.1311 207.0422 15.41644088140753
1 42858U 17042AK  20018.58671160  .00004238  00000-0  10231-3 0  9993
2 42858  96.9122 255.1608 0009438 149.7364 210.4431 15.41652717140901
1 42858U 17042AK  20019.17088546  .00003678  00000-0  89025-4 0  9994
2 42858  96.9123 255.7142 0009509 147.8033 212.3797 15.41656260140994
1 42858U 17042AK  20019.56033407  .00004320  00000-0  10423-3 0  9993
2 42858  96.9123 256.0831 0009542 146.5533 213.6320 15.41660386141059
1 42858U 17042AK  20019.69014993  .00004495  00000-0  10838-3 0  9999
2 42858  96.9123 256.2060 0009555 146.1441 214.0419 15.41661875141073
1 42858U 17042AK  20020.33922825  .00004246  00000-0  10246-3 0  9991
2 42858  96.9123 256.8209 0009637 144.0162 216.1737 15.41666314141172
1 42858U 17042AK  20020.72867449  .00004338  00000-0  10463-3 0  9997
2 42858  96.9124 257.1898 0009671 142.7359 217.4562 15.41669421141231
1 42858U 17042AK  20021.11811972  .00004859  00000-0  11695-3 0  9997
2 42858  96.9124 257.5587 0009715 141.4420 218.7524 15.41673586141299
1 42858U 17042AK  20021.44265710  .00004129  00000-0  99653-4 0  9997
2 42858  96.9123 257.8662 0009754 140.4010 219.7953 15.41674052141344
1 42858U 17042AK  20021.76719383  .00004327  00000-0  10433-3 0  9990
2 42858  96.9123 258.1736 0009785 139.3448 220.8532 15.41676988141397
1 42858U 17042AK  20022.61098591  .00004756  00000-0  11447-3 0  9998
2 42858  96.9122 258.9730 0009851 136.6395 223.5630 15.41685121141526
1 42858U 17042AK  20023.13024029  .00005309  00000-0  12752-3 0  9996
2 42858  96.9121 259.4650 0009908 134.9146 225.2908 15.41691172141609
1 42858U 17042AK  20023.58458640  .00004953  00000-0  11909-3 0  9992
2 42858  96.9119 259.8954 0009954 133.3832 226.8246 15.41694749141675
1 42858U 17042AK  20024.42836888  .00004672  00000-0  11241-3 0  9997
2 42858  96.9117 260.6947 0010028 130.7291 229.4830 15.41702209141803
1 42858U 17042AK  20024.62308737  .00004476  00000-0  10777-3 0  9991
2 42858  96.9117 260.8792 0010036 130.1364 230.0765 15.41703644141839
1 42858U 17042AK  20025.59667600  .00004080  00000-0  98370-4 0  9992
2 42858  96.9114 261.8015 0010113 127.0687 233.1487 15.41711937141989
1 42858U 17042AK  20025.72648746  .00004114  00000-0  99150-4 0  9992
2 42858  96.9114 261.9245 0010126 126.6613 233.5567 15.41713153142002
1 42858U 17042AK  20026.37554323  .00004332  00000-0  10430-3 0  9996
2 42858  96.9113 262.5394 0010193 124.5997 235.6214 15.41719096142104
1 42858U 17042AK  20026.82988086  .00004090  00000-0  98562-4 0  9997
2 42858  96.9112 262.9698 0010227 123.1890 237.0340 15.41722509142175
1 42858U 17042AK  20027.15440703  .00004005  00000-0  96528-4 0  9999
2 42858  96.9110 263.2773 0010249 122.2011 238.0232 15.41725225142225
1 42858U 17042AK  20027.21931239  .00004092  00000-0  98582-4 0  9993
2 42858  96.9110 263.3387 0010253 122.0018 238.2228 15.41725775142235
1 42858U 17042AK  20027.86836329  .00004143  00000-0  99774-4 0  9999
2 42858  96.9109 263.9536 0010298 119.9305 240.2967 15.41731044142338
1 42858U 17042AK  20028.45250722  .00004001  00000-0  96416-4 0  9995
2 42858  96.9108 264.5070 0010341 118.0730 242.1565 15.41735278142426
1 42858U 17042AK  20028.58231651  .00004294  00000-0  10332-3 0  9995
2 42858  96.9107 264.6299 0010345 117.6681 242.5618 15.41737204142449
1 42858U 17042AK  20028.84193509  .00004442  00000-0  10682-3 0  9996
2 42858  96.9108 264.8759 0010368 116.8827 243.3482 15.41739723142481
1 42858U 17042AK  20029.16645777  .00004587  00000-0  11022-3 0  9990
2 42858  96.9107 265.1833 0010383 115.8930 244.3390 15.41742887142538
1 42858U 17042AK  20029.68569168  .00005583  00000-0  13373-3 0  9994
2 42858  96.9106 265.6751 0010397 114.3151 245.9184 15.41750415142618
1 42858U 17042AK  20029.88040431  .00005413  00000-0  12971-3 0  9998
2 42858  96.9106 265.8596 0010410 113.7378 246.4963 15.41751724142645
1 42858U 17042AK  20030.39963587  .00005421  00000-0  12987-3 0  9998
2 42858  96.9106 266.3514 0010438 112.1497 248.0860 15.41757301142726
1 42858U 17042AK  20031.43809287  .00006440  00000-0  15383-3 0  9995
2 42858  96.9106 267.3351 0010505 108.9479 251.2908 15.41771186142887
1 42858U 17042AK  20031.89241489  .00006428  00000-0  15353-3 0  9992
2 42858  96.9106 267.7655 0010520 107.4997 252.7402 15.41776833142951
1 42858U 17042AK  20032.21692990  .00005644  00000-0  13503-3 0  9990
2 42858  96.9106 268.0729 0010529 106.5285 253.7121 15.41779252143000
1 42858U 17042AK  20032.28183280  .00005532  00000-0  13237-3 0  9994
2 42858  96.9106 268.1344 0010534 106.3374 253.9034 15.41779760143017
1 42858U 17042AK  20032.60634660  .00005650  00000-0  13514-3 0  9992
2 42858  96.9107 268.4418 0010547 105.3565 254.8849 15.41784026143068
1 42858U 17042AK  20033.57988271  .00005362  00000-0  12830-3 0  9999
2 42858  96.9108 269.3639 0010602 102.5149 257.7286 15.41795576143219
1 42858U 17042AK  20033.64478488  .00005404  00000-0  12928-3 0  9996
2 42858  96.9108 269.4253 0010606 102.2768 257.9669 15.41796465143226
1 42858U 17042AK  20033.70968701  .00005441  00000-0  13015-3 0  9994
2 42858  96.9108 269.4868 0010609 102.0531 258.1907 15.41797283143235
1 42858U 17042AK  20034.16400131  .00005306  00000-0  12695-3 0  9996
2 42858  96.9109 269.9171 0010614 100.6480 259.5964 15.41802053143309
1 42858U 17042AK  20035.07262566  .00004907  00000-0  11750-3 0  9992
2 42858  96.9110 270.7778 0010641  97.9199 262.3258 15.41811043143441
1 42858U 17042AK  20035.52693590  .00004856  00000-0  11629-3 0  9995
2 42858  96.9111 271.2081 0010658  96.5651 263.6811 15.41815496143514
1 42858U 17042AK  20036.17594835  .00004912  00000-0  11759-3 0  9996
2 42858  96.9111 271.8229 0010663  94.5287 265.7180 15.41821924143619
1 42858U 17042AK  20036.69515624  .00005249  00000-0  12549-3 0  9994
2 42858  96.9111 272.3148 0010665  92.9985 267.2484 15.41827706143690
1 42858U 17042AK  20037.08456144  .00005069  00000-0  12124-3 0  9998
2 42858  96.9110 272.6838 0010669  91.8317 268.4153 15.41830887143756
1 42858U 17042AK  20037.60376568  .00005903  00000-0  14085-3 0  9992
2 42858  96.9109 273.1756 0010663  90.2116 270.0354 15.41838417143831
1 42858U 17042AK  20037.79846712  .00005742  00000-0  13706-3 0  9995
2 42858  96.9109 273.3601 0010667  89.6695 270.5776 15.41839901143865
1 42858U 17042AK  20038.57726918  .00006322  00000-0  15066-3 0  9993
2 42858  96.9108 274.0979 0010699  87.4196 272.8277 15.41849431143980
1 42858U 17042AK  20038.70706903  .00006294  00000-0  15000-3 0  9996
2 42858  96.9107 274.2208 0010700  87.0052 273.2421 15.41850916144006
1 42858U 17042AK  20039.42096578  .00006415  00000-0  15280-3 0  9991
2 42858  96.9105 274.8971 0010713  84.8557 275.3914 15.41859744144116
1 42858U 17042AK  20039.68056392  .00005575  00000-0  13303-3 0  9999
2 42858  96.9104 275.1431 0010715  84.0661 276.1808 15.41861199144152
1 42858U 17042AK  20040.06995965  .00005433  00000-0  12967-3 0  9999
2 42858  96.9103 275.5120 0010708  82.8389 277.4076 15.41865675144216
1 42858U 17042AK  20040.19975801  .00005296  00000-0  12644-3 0  9999
2 42858  96.9102 275.6350 0010708  82.4553 277.7911 15.41866996144230
1 42858U 17042AK  20040.58915264  .00004877  00000-0  11657-3 0  9996
2 42858  96.9101 276.0039 0010708  81.2927 278.9534 15.41870498144292
1 42858U 17042AK  20041.17324262  .00004757  00000-0  11373-3 0  9996
2 42858  96.9099 276.5573 0010694  79.5454 280.6998 15.41876300144387
1 42858U 17042AK  20041.43283758  .00004749  00000-0  11354-3 0  9999
2 42858  96.9098 276.8033 0010692  78.8132 281.4317 15.41878761144425
1 42858U 17042AK  20041.88712773  .00004514  00000-0  10800-3 0  9997
2 42858  96.9096 277.2337 0010677  77.4044 282.8398 15.41882654144492
1 42858U 17042AK  20042.40631483  .00005016  00000-0  11976-3 0  9997
2 42858  96.9095 277.7255 0010659  75.8368 284.4064 15.41888670144577
1 42858U 17042AK  20042.60100966  .00004962  00000-0  11850-3 0  9996
2 42858  96.9095 277.9099 0010652  75.2352 285.0076 15.41890439144605
